      2.10          N: GNSS NAV DATA                        RINEX VERSION / TYPE
fic2rin                                 03/14/2020 00:19:14 PGM / RUN BY / DATE
                                                            END OF HEADER
24 20  3 13 18  0  0.0-1.029763370752e-05-4.547473508865e-13 0.000000000000e+00
    4.600000000000e+01 8.921875000000e+01 4.996636701403e-09-1.798591509733e+00
    4.474073648453e-06 9.584177867509e-03 1.071766018867e-05 5.153666885376e+03
    4.968000000000e+05 1.024454832077e-07 1.242264613696e+00-1.098960638046e-07
    9.367468212308e-01 1.579062500000e+02 6.636831802456e-01-8.212842097839e-09
    2.610823036973e-10 1.000000000000e+00 2.096000000000e+03 0.000000000000e+00
    2.400000000000e+00 0.000000000000e+00 2.793967723846e-09 4.600000000000e+01
    4.896000000000e+05 4.000000000000e+00
19 20  3 13 18  0  0.0-1.862719655037e-04 5.115907697473e-12 0.000000000000e+00
    2.500000000000e+01-9.671875000000e+01 3.925163498815e-09 2.762207570313e+00
   -4.924833774567e-06 9.245614754036e-03 9.307637810707e-06 5.153683481216e+03
    4.968000000000e+05 1.695007085800e-07-2.785151632219e+00-3.725290298462e-08
    9.825112377653e-01 2.085000000000e+02 1.571826880899e+00-7.764609141423e-09
   -4.193031799462e-10 1.000000000000e+00 2.096000000000e+03 0.000000000000e+00
    2.400000000000e+00 0.000000000000e+00-1.536682248116e-08 2.500000000000e+01
    4.896000000000e+05 4.000000000000e+00
22 20  3 13 18  0  0.0-7.854406721890e-04-1.136868377216e-13 0.000000000000e+00
    7.500000000000e+01 3.687500000000e+00 5.587375593764e-09-7.641713771366e-01
    2.514570951462e-07 7.167619420215e-03 5.062669515610e-06 5.153541978836e+03
    4.968000000000e+05-1.192092895508e-07-8.759097139554e-01 8.009374141693e-08
    9.298422721429e-01 2.682187500000e+02-1.209021291058e+00-8.773579740527e-09
    2.803688213439e-10 1.000000000000e+00 2.096000000000e+03 0.000000000000e+00
    2.400000000000e+00 0.000000000000e+00-1.816079020500e-08 7.500000000000e+01
    4.896000000000e+05 4.000000000000e+00
25 20  3 13 18  0  0.0-9.207520633936e-06 1.932676241267e-12 0.000000000000e+00
    8.100000000000e+01 3.212500000000e+01 4.730197031693e-09 2.608774832069e+00
    1.437962055206e-06 9.217211976647e-03 3.177672624588e-06 5.153578538895e+03
    4.968000000000e+05-9.872019290924e-08 2.350666456316e+00-1.154839992523e-07
    9.663720899850e-01 3.186562500000e+02 9.079889561046e-01-8.304988793262e-09
   -4.285892810353e-11 1.000000000000e+00 2.096000000000e+03 0.000000000000e+00
    2.400000000000e+00 0.000000000000e+00 5.587935447693e-09 8.100000000000e+01
    4.896000000000e+05 4.000000000000e+00
26 20  3 13 18  0  0.0 1.668347977102e-04 7.617018127348e-12 0.000000000000e+00
    4.400000000000e+01 2.984375000000e+01 5.255933216430e-09 1.946515770389e+00
    1.719221472740e-06 4.721463308670e-03 3.190711140633e-06 5.153583219528e+03
    4.968000000000e+05-5.401670932770e-08 2.316747702938e+00 1.825392246246e-07
    9.474748354557e-01 3.125312500000e+02 2.073320998942e-01-8.686790411117e-09
   -3.285851154604e-11 1.000000000000e+00 2.096000000000e+03 0.000000000000e+00
    2.400000000000e+00 0.000000000000e+00 7.450580596924e-09 4.400000000000e+01
    4.896000000000e+05 4.000000000000e+00
21 20  3 13 18  0  0.0-2.831639721990e-05 5.229594535194e-12 0.000000000000e+00
    1.160000000000e+02-1.325000000000e+01 4.390540026472e-09 2.433600157055e+00
   -6.295740604401e-07 2.484510606155e-02 9.784474968910e-06 5.153546367645e+03
    4.968000000000e+05 3.129243850708e-07-1.905730692510e+00-1.862645149231e-09
    9.520101316604e-01 1.806875000000e+02-1.351535348575e+00-7.584958801122e-09
    1.771502361613e-10 1.000000000000e+00 2.096000000000e+03 0.000000000000e+00
    2.400000000000e+00 0.000000000000e+00-1.024454832077e-08 1.160000000000e+02
    4.896000000000e+05 4.000000000000e+00
20 20  3 13 18  0  0.0 5.278722383082e-04 0.000000000000e+00 0.000000000000e+00
    8.300000000000e+01 8.812500000000e+00 5.389867366753e-09-2.537536046630e+00
    6.929039955139e-07 5.036421702243e-03 5.573034286499e-06 5.153626840591e+03
    4.968000000000e+05-7.264316082001e-08-9.236399237331e-01 1.862645149231e-08
    9.331129371107e-01 2.571562500000e+02 2.620329589577e+00-8.530712481273e-09
    3.185846989029e-10 1.000000000000e+00 2.096000000000e+03 0.000000000000e+00
    2.400000000000e+00 0.000000000000e+00-8.847564458847e-09 8.300000000000e+01
    4.896000000000e+05 4.000000000000e+00
28 20  3 13 18  0  0.0 7.331278175116e-04-2.728484105319e-12 0.000000000000e+00
    5.200000000000e+01 7.937500000000e+00 4.714839249123e-09 8.680183081267e-01
    1.359730958939e-07 1.856181607582e-02 3.242865204811e-06 5.153662595749e+03
    4.968000000000e+05-2.682209014893e-07 2.441317453688e+00-2.812594175339e-07
    9.783489037474e-01 3.320312500000e+02-1.412293794745e+00-8.701791035953e-09
   -1.003613233091e-10 1.000000000000e+00 2.096000000000e+03 0.000000000000e+00
    4.850000000000e+00 0.000000000000e+00-1.117587089539e-08 5.200000000000e+01
    4.896000000000e+05 4.000000000000e+00
30 20  3 13 18  0  0.0-1.745610497892e-04-8.753886504564e-12 0.000000000000e+00
    1.460000000000e+02 1.173437500000e+02 4.969135555870e-09-2.751440282589e+00
    5.990266799927e-06 4.329858464189e-03 1.006759703159e-05 5.153685293198e+03
    4.968000000000e+05-2.793967723846e-08 1.336981845998e+00-4.097819328308e-08
    9.387733504439e-01 1.782812500000e+02-2.925208698341e+00-8.251772290866e-09
    2.357241045694e-10 1.000000000000e+00 2.096000000000e+03 0.000000000000e+00
    3.400000000000e+00 0.000000000000e+00 3.725290298462e-09 1.460000000000e+02
    4.896000000000e+05 4.000000000000e+00
 4 20  3 13 18  0  0.0-6.174575537443e-05-5.343281372916e-12 0.000000000000e+00
    2.190000000000e+02-2.428125000000e+01 4.498044504465e-09-8.076955335896e-01
   -1.244246959686e-06 5.994577659294e-04 1.037307083607e-05 5.153711715698e+03
    4.968000000000e+05 1.862645149231e-09 2.861632224297e-01 5.587935447693e-08
    9.604125932909e-01 1.771875000000e+02-2.673904926576e+00-7.971760627257e-09
   -3.021554431299e-10 1.000000000000e+00 2.096000000000e+03 0.000000000000e+00
    2.400000000000e+00 0.000000000000e+00-4.190951585770e-09 9.870000000000e+02
    4.897200000000e+05 4.000000000000e+00
 5 20  3 13 17 59 44.0-9.056646376848e-06-5.684341886081e-13 0.000000000000e+00
    1.000000000000e+00-6.687500000000e+00 5.092354974168e-09 9.037955467808e-01
   -2.477318048477e-07 5.771825904958e-03 5.431473255157e-06 5.153609832764e+03
    4.967840000000e+05-8.009374141693e-08-8.230510897815e-01 5.587935447693e-09
    9.518714031389e-01 2.710000000000e+02 7.900478173713e-01-8.478210294347e-09
    1.432202514126e-10 1.000000000000e+00 2.096000000000e+03 0.000000000000e+00
    2.400000000000e+00 0.000000000000e+00-1.117587089539e-08 1.000000000000e+00
    4.932600000000e+05 4.000000000000e+00
28 20  3 13 17 59 44.0 7.331352680922e-04-2.614797267597e-12 0.000000000000e+00
    3.400000000000e+01 7.937500000000e+00 4.714839249123e-09 8.656844988227e-01
    1.359730958939e-07 1.856181351468e-02 3.242865204811e-06 5.153662597656e+03
    4.967840000000e+05-2.682209014893e-07 2.441317616072e+00-2.812594175339e-07
    9.783489095991e-01 3.320312500000e+02-1.412293742080e+00-8.701791035953e-09
   -1.003613233091e-10 1.000000000000e+00 2.096000000000e+03 0.000000000000e+00
    2.400000000000e+00 0.000000000000e+00-1.117587089539e-08 3.400000000000e+01
    4.939500000000e+05 4.000000000000e+00
 5 20  3 13 19 59 44.0-9.060837328434e-06-5.684341886081e-13 0.000000000000e+00
    3.000000000000e+00-3.156250000000e+00 5.129856536258e-09 1.954113107740e+00
   -2.048909664154e-07 5.771679221652e-03 5.390495061874e-06 5.153608789444e+03
    5.039840000000e+05-7.078051567078e-08-8.231121797776e-01-6.146728992462e-08
    9.518724769208e-01 2.730625000000e+02 7.899549879046e-01-8.451066306548e-09
    1.464346710204e-10 1.000000000000e+00 2.096000000000e+03 0.000000000000e+00
    2.400000000000e+00 0.000000000000e+00-1.117587089539e-08 3.000000000000e+00
    4.968000000000e+05 4.000000000000e+00
28 20  3 13 19 59 44.0 7.331166416407e-04-2.614797267597e-12 0.000000000000e+00
    3.500000000000e+01 8.562500000000e+00 4.459828626906e-09 1.915826774401e+00
    1.862645149231e-07 1.856193901040e-02 2.434477210045e-06 5.153664230347e+03
    5.039840000000e+05 3.706663846970e-07 2.441257329218e+00-1.937150955200e-07
    9.783511025133e-01 3.378437500000e+02-1.412248382842e+00-8.062835849477e-09
   -1.142904749427e-10 1.000000000000e+00 2.096000000000e+03 0.000000000000e+00
    2.400000000000e+00 0.000000000000e+00-1.117587089539e-08 3.500000000000e+01
    4.968000000000e+05 4.000000000000e+00
 2 20  3 13 20  0  0.0-4.212921485305e-04-6.707523425575e-12 0.000000000000e+00
    1.400000000000e+01 4.843750000000e+00 4.544475009911e-09-6.894933927159e-01
    2.793967723846e-07 1.980429177638e-02 1.144967973232e-05 5.153657564163e+03
    5.040000000000e+05-2.086162567139e-07-1.908415684076e+00 2.142041921616e-07
    9.580936589380e-01 1.643750000000e+02-1.647732095593e+00-8.415707690862e-09
    4.039453973758e-10 1.000000000000e+00 2.096000000000e+03 0.000000000000e+00
    2.400000000000e+00 0.000000000000e+00-1.769512891769e-08 1.400000000000e+01
    4.968000000000e+05 4.000000000000e+00
 1 20  3 13 20  0  0.0-3.247894346714e-04-1.239186531166e-11 0.000000000000e+00
    2.300000000000e+01-1.656250000000e+00 3.992666310578e-09-9.479101530627e-01
   -1.490116119385e-07 9.498932864517e-03 9.933486580849e-06 5.153634649277e+03
    5.040000000000e+05 1.862645149231e-07-1.833648290491e+00 1.452863216400e-07
    9.790309146930e-01 1.982500000000e+02 7.545794563146e-01-7.869970673011e-09
    2.242950570751e-10 1.000000000000e+00 2.096000000000e+03 0.000000000000e+00
    2.400000000000e+00 0.000000000000e+00 5.587935447693e-09 2.300000000000e+01
    4.968000000000e+05 4.000000000000e+00
